[{"OBJECT_NAME":"VSP RF B1","OBJECT_ID":"2024-043AR","EPOCH":"2026-03-09T22:40:29.479296","MEAN_MOTION":15.26694159,"ECCENTRICITY":0.00102608,"INCLINATION":97.5446,"RA_OF_ASC_NODE":204.7052,"ARG_OF_PERICENTER":220.7435,"MEAN_ANOMALY":139.3037,"EPHEMERIS_TYPE":0,"CLASSIFICATION_TYPE":"U","NORAD_CAT_ID":59137,"ELEMENT_SET_NO":999,"REV_AT_EPOCH":11187,"BSTAR":0.00024406819,"MEAN_MOTION_DOT":6.341e-5,"MEAN_MOTION_DDOT":0},{"OBJECT_NAME":"STARLINK-31445","OBJECT_ID":"2024-056S","EPOCH":"2026-03-09T18:19:03.882432","MEAN_MOTION":15.2756585,"ECCENTRICITY":0.0001523,"INCLINATION":42.9999,"RA_OF_ASC_NODE":237.3767,"ARG_OF_PERICENTER":276.6676,"MEAN_ANOMALY":83.4003,"EPHEMERIS_TYPE":0,"CLASSIFICATION_TYPE":"U","NORAD_CAT_ID":59312,"ELEMENT_SET_NO":999,"REV_AT_EPOCH":11108,"BSTAR":-5.7292567e-5,"MEAN_MOTION_DOT":-1.838e-5,"MEAN_MOTION_DDOT":0}]
